{"type": "FeatureCollection", "features": [ {"type": "Feature", "properties": {"norad_id": 30160, "name": "FENGYUN 1C DEB", "group": "fengyun-1c-debris", "lat": -48.099931840445336, "lon": 117.36904812451726, "alt_km": 1284.104376427249, "timestamp": "2025-12-26T10:30:50.541947+00:00", "meta": {"OBJECT_NAME": "FENGYUN 1C DEB", "OBJECT_ID": "1999-025TR", "EPOCH": "2025-12-25T19:15:13.984416", "MEAN_MOTION": 13.42912696, "ECCENTRICITY": 0.03435224, "INCLINATION": 98.8876, "RA_OF_ASC_NODE": 306.8501, "ARG_OF_PERICENTER": 94.8661, "MEAN_ANOMALY": 298.7723, "EPHEMERIS_TYPE": 0, "CLASSIFICATION_TYPE": "U", "NORAD_CAT_ID": 30160, "ELEMENT_SET_NO": 999, "REV_AT_EPOCH": 92589, "BSTAR": 0.00130833, "MEAN_MOTION_DOT": 1.024e-05, "MEAN_MOTION_DDOT": 0}, "tle": {"line1": "1 30160U 99025TR  25359.80224519  .00001024  00000+0  13083-2 0  9993", "line2": "2 30160  98.8876 306.8501 0343522  94.8661 298.7723 13.42912696925898"}}, "geometry": {"type": "Point", "coordinates": [117.36904812451726, -48.099931840445336]}}, {"type": "Feature", "properties": {"norad_id": 30161, "name": "FENGYUN 1C DEB", "group": "fengyun-1c-debris", "lat": 61.74749937869924, "lon": -171.2056860051352, "alt_km": 1137.0113318852227, "timestamp": "2025-12-26T10:30:50.541957+00:00", "meta": {"OBJECT_NAME": "FENGYUN 1C DEB", "OBJECT_ID": "1999-025TS", "EPOCH": "2025-12-25T13:12:02.179872", "MEAN_MOTION": 13.49753719, "ECCENTRICITY": 0.0327634, "INCLINATION": 100.5069, "RA_OF_ASC_NODE": 347.6551, "ARG_OF_PERICENTER": 226.9173, "MEAN_ANOMALY": 259.9584, "EPHEMERIS_TYPE": 0, "CLASSIFICATION_TYPE": "U", "NORAD_CAT_ID": 30161, "ELEMENT_SET_NO": 999, "REV_AT_EPOCH": 92732, "BSTAR": 0.0014194, "MEAN_MOTION_DOT": 1.204e-05, "MEAN_MOTION_DDOT": 0}, "tle": {"line1": "1 30161U 99025TS  25359.55002523  .00001204  00000+0  14194-2 0  9999", "line2": "2 30161 100.5069 347.6551 0327634 226.9173 259.9584 13.49753719927324"}}, "geometry": {"type": "Point", "coordinates": [-171.2056860051352, 61.74749937869924]}}, {"type": "Feature", "properties": {"norad_id": 30162, "name": "FENGYUN 1C DEB", "group": "fengyun-1c-debris", "lat": 74.2238115113697, "lon": -87.75065561756509, "alt_km": 1248.0196055120814, "timestamp": "2025-12-26T10:30:50.541967+00:00", "meta": {"OBJECT_NAME": "FENGYUN 1C DEB", "OBJECT_ID": "1999-025TT", "EPOCH": "2025-12-26T03:10:44.651136", "MEAN_MOTION": 13.53458184, "ECCENTRICITY": 0.0314264, "INCLINATION": 99.4875, "RA_OF_ASC_NODE": 55.6658, "ARG_OF_PERICENTER": 315.6385, "MEAN_ANOMALY": 96.6715, "EPHEMERIS_TYPE": 0, "CLASSIFICATION_TYPE": "U", "NORAD_CAT_ID": 30162, "ELEMENT_SET_NO": 999, "REV_AT_EPOCH": 92842, "BSTAR": 0.0025805, "MEAN_MOTION_DOT": 2.327e-05, "MEAN_MOTION_DDOT": 0}, "tle": {"line1": "1 30162U 99025TT  25360.13246124  .00002327  00000+0  25805-2 0  9991", "line2": "2 30162  99.4875  55.6658 0314264 315.6385  96.6715 13.53458184928423"}}, "geometry": {"type": "Point", "coordinates": [-87.75065561756509, 74.2238115113697]}}, {"type": "Feature", "properties": {"norad_id": 30163, "name": "FENGYUN 1C DEB", "group": "fengyun-1c-debris", "lat": 70.61928523327806, "lon": -40.58673037868711, "alt_km": 1100.259116318257, "timestamp": "2025-12-26T10:30:50.541978+00:00", "meta": {"OBJECT_NAME": "FENGYUN 1C DEB", "OBJECT_ID": "1999-025TU", "EPOCH": "2025-12-25T18:36:18.061920", "MEAN_MOTION": 13.38821668, "ECCENTRICITY": 0.03741252, "INCLINATION": 98.7014, "RA_OF_ASC_NODE": 113.0377, "ARG_OF_PERICENTER": 199.8281, "MEAN_ANOMALY": 318.576, "EPHEMERIS_TYPE": 0, "CLASSIFICATION_TYPE": "U", "NORAD_CAT_ID": 30163, "ELEMENT_SET_NO": 999, "REV_AT_EPOCH": 92119, "BSTAR": 0.0020615055, "MEAN_MOTION_DOT": 1.619e-05, "MEAN_MOTION_DDOT": 0}, "tle": {"line1": "1 30163U 99025TU  25359.77520905  .00001619  00000+0  20615-2 0  9999", "line2": "2 30163  98.7014 113.0377 0374125 199.8281 318.5760 13.38821668921194"}}, "geometry": {"type": "Point", "coordinates": [-40.58673037868711, 70.61928523327806]}}, {"type": "Feature", "properties": {"norad_id": 30167, "name": "FENGYUN 1C DEB", "group": "fengyun-1c-debris", "lat": 63.168636110460184, "lon": 68.26498948930582, "alt_km": 655.915206665115, "timestamp": "2025-12-26T10:30:50.541988+00:00", "meta": {"OBJECT_NAME": "FENGYUN 1C DEB", "OBJECT_ID": "1999-025TY", "EPOCH": "2025-12-26T03:53:39.414336", "MEAN_MOTION": 14.48590378, "ECCENTRICITY": 0.0144324, "INCLINATION": 98.9671, "RA_OF_ASC_NODE": 86.1618, "ARG_OF_PERICENTER": 114.4884, "MEAN_ANOMALY": 313.8337, "EPHEMERIS_TYPE": 0, "CLASSIFICATION_TYPE": "U", "NORAD_CAT_ID": 30167, "ELEMENT_SET_NO": 999, "REV_AT_EPOCH": 99553, "BSTAR": 0.0004067, "MEAN_MOTION_DOT": 1.689e-05, "MEAN_MOTION_DDOT": 0}, "tle": {"line1": "1 30167U 99025TY  25360.16226174  .00001689  00000+0  40670-3 0  9990", "line2": "2 30167  98.9671  86.1618 0144324 114.4884 313.8337 14.48590378995535"}}, "geometry": {"type": "Point", "coordinates": [68.26498948930582, 63.168636110460184]}}, {"type": "Feature", "properties": {"norad_id": 30168, "name": "FENGYUN 1C DEB", "group": "fengyun-1c-debris", "lat": -9.912739678644101, "lon": 72.49077503586454, "alt_km": 756.208587307453, "timestamp": "2025-12-26T10:30:50.541999+00:00", "meta": {"OBJECT_NAME": "FENGYUN 1C DEB", "OBJECT_ID": "1999-025TZ", "EPOCH": "2025-12-26T03:56:58.722720", "MEAN_MOTION": 14.53073032, "ECCENTRICITY": 0.0100266, "INCLINATION": 97.3885, "RA_OF_ASC_NODE": 70.9502, "ARG_OF_PERICENTER": 112.248, "MEAN_ANOMALY": 248.9389, "EPHEMERIS_TYPE": 0, "CLASSIFICATION_TYPE": "U", "NORAD_CAT_ID": 30168, "ELEMENT_SET_NO": 999, "REV_AT_EPOCH": 98506, "BSTAR": 0.0016394, "MEAN_MOTION_DOT": 7.205e-05, "MEAN_MOTION_DDOT": 0}, "tle": {"line1": "1 30168U 99025TZ  25360.16456855  .00007205  00000+0  16394-2 0  9997", "line2": "2 30168  97.3885  70.9502 0100266 112.2480 248.9389 14.53073032985065"}}, "geometry": {"type": "Point", "coordinates": [72.49077503586454, -9.912739678644101]}}, {"type": "Feature", "properties": {"norad_id": 30169, "name": "FENGYUN 1C DEB", "group": "fengyun-1c-debris", "lat": 69.32396111782194, "lon": 47.093405679044615, "alt_km": 748.9571722536493, "timestamp": "2025-12-26T10:30:50.542009+00:00", "meta": {"OBJECT_NAME": "FENGYUN 1C DEB", "OBJECT_ID": "1999-025UA", "EPOCH": "2025-12-26T03:44:11.539104", "MEAN_MOTION": 14.5850523, "ECCENTRICITY": 0.0212681, "INCLINATION": 98.3344, "RA_OF_ASC_NODE": 69.6676, "ARG_OF_PERICENTER": 185.595, "MEAN_ANOMALY": 205.8168, "EPHEMERIS_TYPE": 0, "CLASSIFICATION_TYPE": "U", "NORAD_CAT_ID": 30169, "ELEMENT_SET_NO": 999, "REV_AT_EPOCH": 97919, "BSTAR": 0.0026465, "MEAN_MOTION_DOT": 0.00016813, "MEAN_MOTION_DDOT": 0}, "tle": {"line1": "1 30169U 99025UA  25360.15568911  .00016813  00000+0  26465-2 0  9999", "line2": "2 30169  98.3344  69.6676 0212681 185.5950 205.8168 14.58505230979193"}}, "geometry": {"type": "Point", "coordinates": [47.093405679044615, 69.32396111782194]}}, {"type": "Feature", "properties": {"norad_id": 30170, "name": "FENGYUN 1C DEB", "group": "fengyun-1c-debris", "lat": 71.65650054927772, "lon": -164.94199647729758, "alt_km": 921.7217055046785, "timestamp": "2025-12-26T10:30:50.542019+00:00", "meta": {"OBJECT_NAME": "FENGYUN 1C DEB", "OBJECT_ID": "1999-025UB", "EPOCH": "2025-12-25T22:15:39.652992", "MEAN_MOTION": 14.00321957, "ECCENTRICITY": 0.0077491, "INCLINATION": 98.8498, "RA_OF_ASC_NODE": 346.537, "ARG_OF_PERICENTER": 237.5434, "MEAN_ANOMALY": 176.9296, "EPHEMERIS_TYPE": 0, "CLASSIFICATION_TYPE": "U", "NORAD_CAT_ID": 30170, "ELEMENT_SET_NO": 999, "REV_AT_EPOCH": 96600, "BSTAR": 0.00028826, "MEAN_MOTION_DOT": 3.95e-06, "MEAN_MOTION_DDOT": 0}, "tle": {"line1": "1 30170U 99025UB  25359.92754228  .00000395  00000+0  28826-3 0  9994", "line2": "2 30170  98.8498 346.5370 0077491 237.5434 176.9296 14.00321957966006"}}, "geometry": {"type": "Point", "coordinates": [-164.94199647729758, 71.65650054927772]}}, {"type": "Feature", "properties": {"norad_id": 30171, "name": "FENGYUN 1C DEB", "group": "fengyun-1c-debris", "lat": 23.275189085363042, "lon": 40.61342569617284, "alt_km": 861.588618876448, "timestamp": "2025-12-26T10:30:50.542029+00:00", "meta": {"OBJECT_NAME": "FENGYUN 1C DEB", "OBJECT_ID": "1999-025UC", "EPOCH": "2025-12-26T02:52:27.467904", "MEAN_MOTION": 13.96871302, "ECCENTRICITY": 0.0184338, "INCLINATION": 98.3976, "RA_OF_ASC_NODE": 216.6794, "ARG_OF_PERICENTER": 229.7855, "MEAN_ANOMALY": 128.7055, "EPHEMERIS_TYPE": 0, "CLASSIFICATION_TYPE": "U", "NORAD_CAT_ID": 30171, "ELEMENT_SET_NO": 999, "REV_AT_EPOCH": 96457, "BSTAR": 0.00026114, "MEAN_MOTION_DOT": 3.8e-06, "MEAN_MOTION_DDOT": 0}, "tle": {"line1": "1 30171U 99025UC  25360.11976236  .00000380  00000+0  26114-3 0  9995", "line2": "2 30171  98.3976 216.6794 0184338 229.7855 128.7055 13.96871302964575"}}, "geometry": {"type": "Point", "coordinates": [40.61342569617284, 23.275189085363042]}}, {"type": "Feature", "properties": {"norad_id": 30172, "name": "FENGYUN 1C DEB", "group": "fengyun-1c-debris", "lat": -39.07523129765904, "lon": 152.3330086617088, "alt_km": 829.2959557384784, "timestamp": "2025-12-26T10:30:50.542039+00:00", "meta": {"OBJECT_NAME": "FENGYUN 1C DEB", "OBJECT_ID": "1999-025UD", "EPOCH": "2025-12-25T11:57:26.316000", "MEAN_MOTION": 14.12522904, "ECCENTRICITY": 0.0068876, "INCLINATION": 99.2364, "RA_OF_ASC_NODE": 338.9568, "ARG_OF_PERICENTER": 165.8819, "MEAN_ANOMALY": 316.3965, "EPHEMERIS_TYPE": 0, "CLASSIFICATION_TYPE": "U", "NORAD_CAT_ID": 30172, "ELEMENT_SET_NO": 999, "REV_AT_EPOCH": 96697, "BSTAR": 0.0012185, "MEAN_MOTION_DOT": 2.257e-05, "MEAN_MOTION_DDOT": 0}, "tle": {"line1": "1 30172U 99025UD  25359.49822125  .00002257  00000+0  12185-2 0  9999", "line2": "2 30172  99.2364 338.9568 0068876 165.8819 316.3965 14.12522904966973"}}, "geometry": {"type": "Point", "coordinates": [152.3330086617088, -39.07523129765904]}}]}